IRIDIUM 7               
1 24793U 97020B   24253.86216810  .00001313  00000+0  45084-3 0  9992
2 24793  86.3926 294.3687 0002052  86.4302 273.7129 14.35408854431676
IRIDIUM 5               
1 24795U 97020D   24253.92676694  .00017662  00000+0  16229-2 0  9993
2 24795  86.3941 212.3769 0121903  61.9559 299.3932 14.89133345443673
IRIDIUM 4               
1 24796U 97020E   24253.60539213  .00001291  00000+0  43495-3 0  9991
2 24796  86.3916 291.5358 0002276  88.9851 271.1607 14.36334432432187
IRIDIUM 914             
1 24836U 97030A   24253.89549791  .00001569  00000+0  48986-3 0  9998
2 24836  86.3913 300.8576 0003842  80.4774 279.6859 14.40228757566778
IRIDIUM 16              
1 24841U 97030F   24253.71723238  .00001750  00000+0  57099-3 0  9992
2 24841  86.4059 323.1364 0000251 185.0105 175.1090 14.38125615426688
IRIDIUM 911             
1 24842U 97030G   24253.89869847  .00002342  00000+0  64061-3 0  9994
2 24842  86.4481 322.1109 0012587 318.5284  41.4962 14.46835372434544
IRIDIUM 17              
1 24870U 97034B   24253.80935275  .00002188  00000+0  72880-3 0  9995
2 24870  86.4019 352.6580 0001980 141.3136 218.8204 14.37226618423304
IRIDIUM 920             
1 24871U 97034C   24253.73881448  .00001773  00000+0  54653-3 0  9997
2 24871  86.4017 332.5790 0009501 290.6159  69.4021 14.40931668426181
